{
  "links" : {
    "next" : "https://api.nasa.gov/neo/rest/v1/feed?start_date=2015-05-09&end_date=2015-05-09&detailed=true&api_key=t0TVs3DtDT2H8Oy2Zy8m2eVrNsAVKAexjcZXUckd",
    "prev" : "https://api.nasa.gov/neo/rest/v1/feed?start_date=2015-05-07&end_date=2015-05-07&detailed=true&api_key=t0TVs3DtDT2H8Oy2Zy8m2eVrNsAVKAexjcZXUckd",
    "self" : "https://api.nasa.gov/neo/rest/v1/feed?start_date=2015-05-08&end_date=2015-05-08&detailed=true&api_key=t0TVs3DtDT2H8Oy2Zy8m2eVrNsAVKAexjcZXUckd"
  },
  "element_count" : 5,
  "near_earth_objects" : {
    "2015-05-08" : [ {
      "links" : {
        "self" : "https://api.nasa.gov/neo/rest/v1/neo/2434500?api_key=t0TVs3DtDT2H8Oy2Zy8m2eVrNsAVKAexjcZXUckd"
      },
      "neo_reference_id" : "2434500",
      "name" : "434500 (2005 SB71)",
      "nasa_jpl_url" : "http://ssd.jpl.nasa.gov/sbdb.cgi?sstr=2434500",
      "absolute_magnitude_h" : 21.2,
      "estimated_diameter" : {
        "kilometers" : {
          "estimated_diameter_min" : 0.1529519353,
          "estimated_diameter_max" : 0.3420109247
        },
        "meters" : {
          "estimated_diameter_min" : 152.9519353442,
          "estimated_diameter_max" : 342.0109247198
        },
        "miles" : {
          "estimated_diameter_min" : 0.095039897,
          "estimated_diameter_max" : 0.2125156703
        },
        "feet" : {
          "estimated_diameter_min" : 501.8108275547,
          "estimated_diameter_max" : 1122.0831222578
        }
      },
      "is_potentially_hazardous_asteroid" : false,
      "close_approach_data" : [ {
        "close_approach_date" : "2015-05-08",
        "epoch_date_close_approach" : 1431068400000,
        "relative_velocity" : {
          "kilometers_per_second" : "11.3818668649",
          "kilometers_per_hour" : "40974.7207137322",
          "miles_per_hour" : "25460.0979901521"
        },
        "miss_distance" : {
          "astronomical" : "0.1701267418",
          "lunar" : "66.1792984009",
          "kilometers" : "25450598",
          "miles" : "15814268"
        },
        "orbiting_body" : "Earth"
      } ],
      "orbital_data" : {
        "orbit_id" : "43",
        "orbit_determination_date" : "2017-04-06 09:20:49",
        "orbit_uncertainty" : "0",
        "minimum_orbit_intersection" : ".0861968",
        "jupiter_tisserand_invariant" : "5.046",
        "epoch_osculation" : "2458000.5",
        "eccentricity" : ".2571766688164828",
        "semi_major_axis" : "1.263400034002953",
        "inclination" : "13.20981155427573",
        "ascending_node_longitude" : "200.6129074918807",
        "orbital_period" : "518.6922430435631",
        "perihelion_distance" : ".9384830218754425",
        "perihelion_argument" : "100.4269914715297",
        "aphelion_distance" : "1.588317046130464",
        "perihelion_time" : "2458250.041984706320",
        "mean_anomaly" : "186.8045923202087",
        "mean_motion" : ".6940531786008701",
        "equinox" : "J2000"
      }
    }, {
      "links" : {
        "self" : "https://api.nasa.gov/neo/rest/v1/neo/3409648?api_key=t0TVs3DtDT2H8Oy2Zy8m2eVrNsAVKAexjcZXUckd"
      },
      "neo_reference_id" : "3409648",
      "name" : "(2008 HC2)",
      "nasa_jpl_url" : "http://ssd.jpl.nasa.gov/sbdb.cgi?sstr=3409648",
      "absolute_magnitude_h" : 19.7,
      "estimated_diameter" : {
        "kilometers" : {
          "estimated_diameter_min" : 0.3051792326,
          "estimated_diameter_max" : 0.6824015094
        },
        "meters" : {
          "estimated_diameter_min" : 305.1792325939,
          "estimated_diameter_max" : 682.4015094011
        },
        "miles" : {
          "estimated_diameter_min" : 0.1896295249,
          "estimated_diameter_max" : 0.4240245083
        },
        "feet" : {
          "estimated_diameter_min" : 1001.2442334633,
          "estimated_diameter_max" : 2238.8501681036
        }
      },
      "is_potentially_hazardous_asteroid" : false,
      "close_approach_data" : [ {
        "close_approach_date" : "2015-05-08",
        "epoch_date_close_approach" : 1431068400000,
        "relative_velocity" : {
          "kilometers_per_second" : "23.906951244",
          "kilometers_per_hour" : "86065.0244782902",
          "miles_per_hour" : "53477.4592376354"
        },
        "miss_distance" : {
          "astronomical" : "0.382927822",
          "lunar" : "148.9589233398",
          "kilometers" : "57285188",
          "miles" : "35595368"
        },
        "orbiting_body" : "Earth"
      } ],
      "orbital_data" : {
        "orbit_id" : "19",
        "orbit_determination_date" : "2017-04-06 09:03:37",
        "orbit_uncertainty" : "1",
        "minimum_orbit_intersection" : ".340435",
        "jupiter_tisserand_invariant" : "4.768",
        "epoch_osculation" : "2458000.5",
        "eccentricity" : ".5224251735089448",
        "semi_major_axis" : "1.243621829702201",
        "inclination" : "45.50270069631853",
        "ascending_node_longitude" : "211.7984890231639",
        "orbital_period" : "506.560045273876",
        "perihelion_distance" : ".5939224795405174",
        "perihelion_argument" : "143.0152117707682",
        "aphelion_distance" : "1.893321179863885",
        "perihelion_time" : "2457748.296971686085",
        "mean_anomaly" : "179.2346061243765",
        "mean_motion" : ".7106758682583482",
        "equinox" : "J2000"
      }
    }, {
      "links" : {
        "self" : "https://api.nasa.gov/neo/rest/v1/neo/3715299?api_key=t0TVs3DtDT2H8Oy2Zy8m2eVrNsAVKAexjcZXUckd"
      },
      "neo_reference_id" : "3715299",
      "name" : "(2015 FK290)",
      "nasa_jpl_url" : "http://ssd.jpl.nasa.gov/sbdb.cgi?sstr=3715299",
      "absolute_magnitude_h" : 21.4,
      "estimated_diameter" : {
        "kilometers" : {
          "estimated_diameter_min" : 0.1394938229,
          "estimated_diameter_max" : 0.3119176705
        },
        "meters" : {
          "estimated_diameter_min" : 139.4938229344,
          "estimated_diameter_max" : 311.9176705226
        },
        "miles" : {
          "estimated_diameter_min" : 0.0866774163,
          "estimated_diameter_max" : 0.1938165949
        },
        "feet" : {
          "estimated_diameter_min" : 457.6569140361,
          "estimated_diameter_max" : 1023.3519701574
        }
      },
      "is_potentially_hazardous_asteroid" : false,
      "close_approach_data" : [ {
        "close_approach_date" : "2015-05-08",
        "epoch_date_close_approach" : 1431068400000,
        "relative_velocity" : {
          "kilometers_per_second" : "15.1537060223",
          "kilometers_per_hour" : "54553.3416803797",
          "miles_per_hour" : "33897.3250013448"
        },
        "miss_distance" : {
          "astronomical" : "0.2140380616",
          "lunar" : "83.2608032227",
          "kilometers" : "32019638",
          "miles" : "19896080"
        },
        "orbiting_body" : "Earth"
      } ],
      "orbital_data" : {
        "orbit_id" : "12",
        "orbit_determination_date" : "2017-04-06 08:34:39",
        "orbit_uncertainty" : "4",
        "minimum_orbit_intersection" : ".163955",
        "jupiter_tisserand_invariant" : "3.304",
        "epoch_osculation" : "2458000.5",
        "eccentricity" : ".6655166917008981",
        "semi_major_axis" : "2.218164965629442",
        "inclination" : "10.6303954484062",
        "ascending_node_longitude" : "85.61072253585992",
        "orbital_period" : "1206.671872121574",
        "perihelion_distance" : ".7419391560568994",
        "perihelion_argument" : "183.62424761011",
        "aphelion_distance" : "3.694390775201985",
        "perihelion_time" : "2458384.373381931225",
        "mean_anomaly" : "245.4747336968524",
        "mean_motion" : ".2983412544182761",
        "equinox" : "J2000"
      }
    } ]
  }
}